NORAD_CAT_ID,OBJECT_NAME,OBJECT_TYPE,EPOCH,MEAN_MOTION,ECCENTRICITY,INCLINATION,RA_OF_ASC_NODE,ARG_OF_PERICENTER,MEAN_ANOMALY,BSTAR,MEAN_MOTION_DOT,MEAN_MOTION_DDOT,TLE_LINE0,TLE_LINE1,TLE_LINE2,SEMIMAJOR_AXIS,PERIOD,APOGEE,PERIGEE,DECAYED
50816.0,STARLINK-3342,PAYLOAD,2024-05-26 21:15:24,15.0884241,0.0001554,53.2164,215.1941,163.7823,196.3219,-0.00017205,-3.025e-05,0.0,0 STARLINK-3342,1 50816U 22001P   24147.88569731 -.00003025  00000-0 -17205-3 0  9990,2 50816  53.2164 215.1941 0001554 163.7823 196.3219 15.08842410132001,6917.873,95.437,540.813,538.663,0.0
50816.0,STARLINK-3342,PAYLOAD,2024-05-27 11:33:53,15.08835173,0.0001237,53.2177,212.5087,102.5755,257.5376,9.9732e-05,1.3e-05,0.0,0 STARLINK-3342,1 50816U 22001P   24148.48186996  .00001300  00000-0  99732-4 0  9993,2 50816  53.2177 212.5087 0001237 102.5755 257.5376 15.08835173133373,6917.895,95.438,540.616,538.904,0.0
50816.0,STARLINK-3342,PAYLOAD,2024-05-28 11:24:40,15.08825481,0.0001409,53.2171,208.0475,95.7874,264.3279,0.00043425,6.627e-05,0.0,0 STARLINK-3342,1 50816U 22001P   24149.47546862  .00006627  00000-0  43425-3 0  9999,2 50816  53.2171 208.0475 0001409  95.7874 264.3279 15.08825481132248,6917.925,95.438,540.765,538.815,0.0
50816.0,STARLINK-3342,PAYLOAD,2024-05-29 11:15:27,15.08843849,0.000134,53.2168,203.5878,78.0912,282.023,0.00011374,1.523e-05,0.0,0 STARLINK-3342,1 50816U 22001P   24150.46906708  .00001523  00000-0  11374-3 0  9997,2 50816  53.2168 203.5878 0001340  78.0912 282.0230 15.08843849132390,6917.869,95.437,540.661,538.807,0.0
50816.0,STARLINK-3342,PAYLOAD,2024-05-30 09:30:50,15.08848352,0.0001331,53.2165,199.4239,80.9645,279.1497,6.7363e-05,7.85e-06,0.0,0 STARLINK-3342,1 50816U 22001P   24151.39642313  .00000785  00000-0  67363-4 0  9998,2 50816  53.2165 199.4239 0001331  80.9645 279.1497 15.08848352132538,6917.855,95.437,540.641,538.799,0.0
50816.0,STARLINK-3342,PAYLOAD,2024-05-31 03:00:05,15.08846179,0.0001503,53.2166,196.155,75.3535,284.7624,0.00010296,1.351e-05,0.0,0 STARLINK-3342,1 50816U 22001P   24152.12506352  .00001351  00000-0  10296-3 0  9994,2 50816  53.2166 196.1550 0001503  75.3535 284.7624 15.08846179133929,6917.862,95.437,540.766,538.687,0.0
50816.0,STARLINK-3342,PAYLOAD,2024-05-31 09:21:38,15.088432,0.0001401,53.2164,194.9646,81.6368,278.4783,6.4861e-05,7.45e-06,0.0,0 STARLINK-3342,1 50816U 22001P   24152.39002495  .00000745  00000-0  64861-4 0  9996,2 50816  53.2164 194.9646 0001401  81.6368 278.4783 15.08843200132680,6917.871,95.437,540.705,538.766,0.0
50816.0,STARLINK-3342,PAYLOAD,2024-06-01 09:12:25,15.08836224,0.0001378,53.2163,190.5016,95.4512,264.6637,-1.825e-05,-5.78e-06,0.0,0 STARLINK-3342,1 50816U 22001P   24153.38363078 -.00000578  00000-0 -18250-4 0  9990,2 50816  53.2163 190.5016 0001378  95.4512 264.6637 15.08836224134112,6917.892,95.438,540.71,538.804,0.0
50816.0,STARLINK-3342,PAYLOAD,2024-06-02 09:03:12,15.08838874,0.0001392,53.2166,186.0426,95.5252,264.5898,6.4272e-05,7.35e-06,0.0,0 STARLINK-3342,1 50816U 22001P   24154.37722886  .00000735  00000-0  64272-4 0  9994,2 50816  53.2166 186.0426 0001392  95.5252 264.5898 15.08838874132982,6917.884,95.438,540.712,538.786,0.0
50816.0,STARLINK-3342,PAYLOAD,2024-06-03 05:43:14,15.08827008,0.0001356,53.2154,182.1691,101.6446,258.4698,1.8713e-05,1e-07,0.0,0 STARLINK-3342,1 50816U 22001P   24155.23836265  .00000010  00000-0  18713-4 0  9992,2 50816  53.2154 182.1691 0001356 101.6446 258.4698 15.08827008134398,6917.92,95.438,540.723,538.847,0.0
50816.0,STARLINK-3342,PAYLOAD,2024-06-03 08:54:01,15.08823169,0.0001183,53.215,181.5754,77.159,282.9534,-1.1712e-05,-4.74e-06,0.0,0 STARLINK-3342,1 50816U 22001P   24155.37084796 -.00000474  00000-0 -11712-4 0  9999,2 50816  53.2150 181.5754 0001183  77.1590 282.9534 15.08823169133138,6917.932,95.439,540.615,538.978,0.0
50816.0,STARLINK-3342,PAYLOAD,2024-06-03 18:26:20,15.08822047,0.0001281,53.216,179.7943,87.0924,273.0214,-3.0055e-05,-7.66e-06,0.0,0 STARLINK-3342,1 50816U 22001P   24155.76829359 -.00000766  00000-0 -30055-4 0  9999,2 50816  53.2160 179.7943 0001281  87.0924 273.0214 15.08822047134476,6917.935,95.439,540.686,538.914,0.0
50816.0,STARLINK-3342,PAYLOAD,2024-06-04 11:55:34,15.08835799,0.0001196,53.2153,176.5232,79.9606,280.1521,4.0171e-05,3.51e-06,0.0,0 STARLINK-3342,1 50816U 22001P   24156.49692921  .00000351  00000-0  40171-4 0  9991,2 50816  53.2153 176.5232 0001196  79.9606 280.1521 15.08835799134586,6917.893,95.438,540.586,538.931,0.0
50816.0,STARLINK-3342,PAYLOAD,2024-06-04 18:17:06,15.08848406,0.0001686,53.2177,175.3394,104.6015,255.5164,0.00018594,2.673e-05,0.0,0 STARLINK-3342,1 50816U 22001P   24156.76187826  .00002673  00000-0  18594-3 0  9996,2 50816  53.2177 175.3394 0001686 104.6015 255.5164 15.08848406134625,6917.855,95.437,540.886,538.553,0.0
50816.0,STARLINK-3342,PAYLOAD,2024-06-05 08:35:33,15.08848587,0.0001391,53.2163,172.6616,103.7694,256.3453,0.00041258,6.286e-05,0.0,0 STARLINK-3342,1 50816U 22001P   24157.35803019  .00006286  00000-0  41258-3 0  9998,2 50816  53.2163 172.6616 0001391 103.7694 256.3453 15.08848587133431,6917.854,95.437,540.681,538.757,0.0
50816.0,STARLINK-3342,PAYLOAD,2024-06-05 18:07:53,15.08844265,0.0001369,53.2162,170.8754,93.9377,266.1772,0.00027236,4.05e-05,0.0,0 STARLINK-3342,1 50816U 22001P   24157.75547777  .00004050  00000-0  27236-3 0  9995,2 50816  53.2162 170.8754 0001369  93.9377 266.1772 15.08844265134776,6917.867,95.437,540.679,538.785,0.0
50816.0,STARLINK-3342,PAYLOAD,2024-06-06 08:26:21,15.08839161,0.0001409,53.2158,168.1987,99.3381,260.7771,1.4602e-05,-5.6e-07,0.0,0 STARLINK-3342,1 50816U 22001P   24158.35164064 -.00000056  00000-0  14602-4 0  9993,2 50816  53.2158 168.1987 0001409  99.3381 260.7771 15.08839161134867,6917.883,95.438,540.723,538.773,0.0
50816.0,STARLINK-3342,PAYLOAD,2024-06-07 00:20:12,15.08853024,0.0001364,53.2165,165.2267,102.6671,257.4474,-2.6633e-05,-7.12e-06,0.0,0 STARLINK-3342,1 50816U 22001P   24159.01403482 -.00000712  00000-0 -26633-4 0  9994,2 50816  53.2165 165.2267 0001364 102.6671 257.4474 15.08853024134962,6917.841,95.437,540.649,538.762,0.0
50816.0,STARLINK-3342,PAYLOAD,2024-06-07 17:49:26,15.08853999,0.0001387,53.2162,161.9553,114.9907,245.1229,-4.5232e-05,-1.008e-05,0.0,0 STARLINK-3342,1 50816U 22001P   24159.74266837 -.00001008  00000-0 -45232-4 0  9990,2 50816  53.2162 161.9553 0001387 114.9907 245.1229 15.08853999133796,6917.838,95.437,540.662,538.743,0.0
50816.0,STARLINK-3342,PAYLOAD,2024-06-08 04:57:09,15.08842527,0.000136,53.2152,159.8739,97.9992,262.1155,0.00016717,2.374e-05,0.0,0 STARLINK-3342,1 50816U 22001P   24160.20635488  .00002374  00000-0  16717-3 0  9995,2 50816  53.2152 159.8739 0001360  97.9992 262.1155 15.08842527135145,6917.873,95.437,540.678,538.797,0.0
50816.0,STARLINK-3342,PAYLOAD,2024-06-08 06:32:32,15.08841686,0.0001359,53.2152,159.5768,96.4346,263.6801,0.00014831,2.073e-05,0.0,0 STARLINK-3342,1 50816U 22001P   24160.27259538  .00002073  00000-0  14831-3 0  9991,2 50816  53.2152 159.5768 0001359  96.4346 263.6801 15.08841686133876,6917.875,95.437,540.68,538.8,0.0
50816.0,STARLINK-3342,PAYLOAD,2024-06-09 04:47:56,15.08839625,0.000133,53.2163,155.4138,97.6599,262.4544,1.5261e-05,-4.5e-07,0.0,0 STARLINK-3342,1 50816U 22001P   24161.19995772 -.00000045  00000-0  15261-4 0  9997,2 50816  53.2163 155.4138 0001330  97.6599 262.4544 15.08839625135295,6917.882,95.438,540.667,538.826,0.0
50816.0,STARLINK-3342,PAYLOAD,2024-06-09 06:23:19,15.08839579,0.0001331,53.2163,155.1163,97.8681,262.2462,1.0926e-05,-1.14e-06,0.0,0 STARLINK-3342,1 50816U 22001P   24161.26619753 -.00000114  00000-0  10926-4 0  9997,2 50816  53.2163 155.1163 0001331  97.8681 262.2462 15.08839579134020,6917.882,95.438,540.667,538.826,0.0
50816.0,STARLINK-3342,PAYLOAD,2024-06-10 06:14:06,15.08841165,0.0001314,53.2166,150.6563,95.9967,264.1174,6.4646e-05,7.41e-06,0.0,0 STARLINK-3342,1 50816U 22001P   24162.25979580  .00000741  00000-0  64646-4 0  9997,2 50816  53.2166 150.6563 0001314  95.9967 264.1174 15.08841165135457,6917.877,95.437,540.651,538.833,0.0
50816.0,STARLINK-3342,PAYLOAD,2024-06-10 15:46:25,15.08838258,0.000131,53.2164,148.8723,95.4886,264.6256,7.6913e-05,9.36e-06,0.0,0 STARLINK-3342,1 50816U 22001P   24162.65723778  .00000936  00000-0  76913-4 0  9993,2 50816  53.2164 148.8723 0001310  95.4886 264.6256 15.08838258134233,6917.886,95.438,540.657,538.844,0.0
50816.0,STARLINK-3342,PAYLOAD,2024-06-11 06:04:54,15.08831109,0.0001389,53.2169,146.197,98.625,261.49,2.775e-05,1.54e-06,0.0,0 STARLINK-3342,1 50816U 22001P   24163.25340580  .00000154  00000-0  27750-4 0  9993,2 50816  53.2169 146.1970 0001389  98.6250 261.4900 15.08831109135600,6917.908,95.438,540.733,538.812,0.0
50816.0,STARLINK-3342,PAYLOAD,2024-06-12 05:55:40,15.088444,0.0001391,53.2172,141.7361,95.5268,264.5883,8.6083e-05,1.082e-05,0.0,0 STARLINK-3342,1 50816U 22001P   24164.24699765  .00001082  00000-0  86083-4 0  9990,2 50816  53.2172 141.7361 0001391  95.5268 264.5883 15.08844400135755,6917.867,95.437,540.694,538.77,0.0
50816.0,STARLINK-3342,PAYLOAD,2024-06-12 15:27:59,15.08842848,0.0001364,53.2169,139.9507,88.2763,271.8386,6.0599e-05,6.77e-06,0.0,0 STARLINK-3342,1 50816U 22001P   24164.64443844  .00000677  00000-0  60599-4 0  9992,2 50816  53.2169 139.9507 0001364  88.2763 271.8386 15.08842848134539,6917.872,95.437,540.68,538.793,0.0
50816.0,STARLINK-3342,PAYLOAD,2024-06-13 04:11:05,15.08834346,0.0001401,53.2167,137.5716,84.9235,275.1917,5.5162e-05,5.9e-06,0.0,0 STARLINK-3342,1 50816U 22001P   24165.17436537  .00000590  00000-0  55162-4 0  9996,2 50816  53.2167 137.5716 0001401  84.9235 275.1917 15.08834346135893,6917.898,95.438,540.732,538.793,0.0
50816.0,STARLINK-3342,PAYLOAD,2024-06-13 07:21:51,15.08838029,0.0001441,53.2167,136.977,84.6657,275.4499,8.5155e-05,1.067e-05,0.0,0 STARLINK-3342,1 50816U 22001P   24165.30684256  .00001067  00000-0  85155-4 0  9999,2 50816  53.2167 136.9770 0001441  84.6657 275.4499 15.08838029134636,6917.886,95.438,540.748,538.755,0.0
